[
    {
        "Altitude(m)": 702786.1837718829,
        "Argument of Periapsis(deg)": 0.005695060593313534,
        "Eccentricity": 0.0,
        "Inclination(deg)": 45.0,
        "Latitude(deg)": 7.451451918988618,
        "Longitude(deg)": -27.846296574141416,
        "Mean Anomaly(deg)": -190.5969916762596,
        "RAAN(deg)": 259.9946240292709,
        "Satellite Name": "Constellation 1 1154",
        "Satellite Number": 1154,
        "Semi-Major Axis(m)": 7083131.272910544,
        "Time(s)": 95
    },
    {
        "Altitude(m)": 702788.2161828196,
        "Argument of Periapsis(deg)": 0.00575500859955894,
        "Eccentricity": 0.0,
        "Inclination(deg)": 45.0,
        "Latitude(deg)": 7.408598667515507,
        "Longitude(deg)": -27.80681414479841,
        "Mean Anomaly(deg)": -190.5362905360096,
        "RAAN(deg)": 259.99456744010536,
        "Satellite Name": "Constellation 1 1154",
        "Satellite Number": 1154,
        "Semi-Major Axis(m)": 7083131.272910544,
        "Time(s)": 96
    },
    {
        "Altitude(m)": 702790.2689591817,
        "Argument of Periapsis(deg)": 0.005814956605804345,
        "Eccentricity": 0.0,
        "Inclination(deg)": 45.0,
        "Latitude(deg)": 7.365741116324356,
        "Longitude(deg)": -27.76734001416755,
        "Mean Anomaly(deg)": -190.47558939575976,
        "RAAN(deg)": 259.9945108509398,
        "Satellite Name": "Constellation 1 1154",
        "Satellite Number": 1154,
        "Semi-Major Axis(m)": 7083131.272910544,
        "Time(s)": 97
    },
    {
        "Altitude(m)": 702792.3421103896,
        "Argument of Periapsis(deg)": 0.00587490461204975,
        "Eccentricity": 0.0,
        "Inclination(deg)": 45.0,
        "Latitude(deg)": 7.32287929175263,
        "Longitude(deg)": -27.72787430042211,
        "Mean Anomaly(deg)": -190.4148882555099,
        "RAAN(deg)": 259.99445426177425,
        "Satellite Name": "Constellation 1 1154",
        "Satellite Number": 1154,
        "Semi-Major Axis(m)": 7083131.272910544,
        "Time(s)": 98
    },
    {
        "Altitude(m)": 702794.4356457556,
        "Argument of Periapsis(deg)": 0.005934852618295156,
        "Eccentricity": 0.0,
        "Inclination(deg)": 45.0,
        "Latitude(deg)": 7.280013220122362,
        "Longitude(deg)": -27.688416953656816,
        "Mean Anomaly(deg)": -190.35418711525998,
        "RAAN(deg)": 259.9943976726086,
        "Satellite Name": "Constellation 1 1154",
        "Satellite Number": 1154,
        "Semi-Major Axis(m)": 7083131.272910544,
        "Time(s)": 99
    },
    {
        "Altitude(m)": 702796.5495745158,
        "Argument of Periapsis(deg)": 0.005994800624540561,
        "Eccentricity": 0.0,
        "Inclination(deg)": 45.0,
        "Latitude(deg)": 7.237142927739443,
        "Longitude(deg)": -27.648967923984337,
        "Mean Anomaly(deg)": -190.29348597501007,
        "RAAN(deg)": 259.99434108344303,
        "Satellite Name": "Constellation 1 1154",
        "Satellite Number": 1154,
        "Semi-Major Axis(m)": 7083131.272910544,
        "Time(s)": 100
    },
    {
        "Altitude(m)": 702798.6839058128,
        "Argument of Periapsis(deg)": 0.006054748630785968,
        "Eccentricity": 0.0,
        "Inclination(deg)": 45.0,
        "Latitude(deg)": 7.1942684408936515,
        "Longitude(deg)": -27.609527161535247,
        "Mean Anomaly(deg)": -190.2327848347602,
        "RAAN(deg)": 259.9942844942775,
        "Satellite Name": "Constellation 1 1154",
        "Satellite Number": 1154,
        "Semi-Major Axis(m)": 7083131.272910544,
        "Time(s)": 101
    },
    {
        "Altitude(m)": 702800.838648704,
        "Argument of Periapsis(deg)": 0.006114696637031373,
        "Eccentricity": 0.0,
        "Inclination(deg)": 45.0,
        "Latitude(deg)": 7.151389785859025,
        "Longitude(deg)": -27.570094616458135,
        "Mean Anomaly(deg)": -190.1720836945103,
        "RAAN(deg)": 259.9942279051119,
        "Satellite Name": "Constellation 1 1154",
        "Satellite Number": 1154,
        "Semi-Major Axis(m)": 7083131.272910544,
        "Time(s)": 102
    },
    {
        "Altitude(m)": 702803.0138121493,
        "Argument of Periapsis(deg)": 0.006174644643276778,
        "Eccentricity": 0.0,
        "Inclination(deg)": 45.0,
        "Latitude(deg)": 7.108506988893829,
        "Longitude(deg)": -27.530670238919352,
        "Mean Anomaly(deg)": -190.11138255426036,
        "RAAN(deg)": 259.9941713159464,
        "Satellite Name": "Constellation 1 1154",
        "Satellite Number": 1154,
        "Semi-Major Axis(m)": 7083131.272910544,
        "Time(s)": 103
    },
    {
        "Altitude(m)": 702805.2094050306,
        "Argument of Periapsis(deg)": 0.006234592649522184,
        "Eccentricity": 0.0,
        "Inclination(deg)": 45.0,
        "Latitude(deg)": 7.065620076240329,
        "Longitude(deg)": -27.4912541471999,
        "Mean Anomaly(deg)": -190.0506814140105,
        "RAAN(deg)": 259.99411472678077,
        "Satellite Name": "Constellation 1 1154",
        "Satellite Number": 1154,
        "Semi-Major Axis(m)": 7083131.272910544,
        "Time(s)": 104
    },
    {
        "Altitude(m)": 702807.4254361315,
        "Argument of Periapsis(deg)": 0.00629454065576759,
        "Eccentricity": 0.0,
        "Inclination(deg)": 45.0,
        "Latitude(deg)": 7.022729074125887,
        "Longitude(deg)": -27.45184595530718,
        "Mean Anomaly(deg)": -189.98998027376058,
        "RAAN(deg)": 259.9940581376152,
        "Satellite Name": "Constellation 1 1154",
        "Satellite Number": 1154,
        "Semi-Major Axis(m)": 7083131.272910544,
        "Time(s)": 105
    },
    {
        "Altitude(m)": 702809.6619141531,
        "Argument of Periapsis(deg)": 0.006354488662012995,
        "Eccentricity": 0.0,
        "Inclination(deg)": 45.0,
        "Latitude(deg)": 6.979834008761957,
        "Longitude(deg)": -27.412445781557462,
        "Mean Anomaly(deg)": -189.92927913351073,
        "RAAN(deg)": 259.99400154844966,
        "Satellite Name": "Constellation 1 1154",
        "Satellite Number": 1154,
        "Semi-Major Axis(m)": 7083131.272910544,
        "Time(s)": 106
    },
    {
        "Altitude(m)": 702811.918847699,
        "Argument of Periapsis(deg)": 0.006414436668258401,
        "Eccentricity": 0.0,
        "Inclination(deg)": 45.0,
        "Latitude(deg)": 6.936934906344316,
        "Longitude(deg)": -27.37305357618697,
        "Mean Anomaly(deg)": -189.86857799326074,
        "RAAN(deg)": 259.9939449592841,
        "Satellite Name": "Constellation 1 1154",
        "Satellite Number": 1154,
        "Semi-Major Axis(m)": 7083131.272910544,
        "Time(s)": 107
    },
    {
        "Altitude(m)": 702814.1962452951,
        "Argument of Periapsis(deg)": 0.0064743846745038075,
        "Eccentricity": 0.0,
        "Inclination(deg)": 45.0,
        "Latitude(deg)": 6.8940317930540695,
        "Longitude(deg)": -27.333669289449695,
        "Mean Anomaly(deg)": -189.80787685301095,
        "RAAN(deg)": 259.99388837011855,
        "Satellite Name": "Constellation 1 1154",
        "Satellite Number": 1154,
        "Semi-Major Axis(m)": 7083131.272910544,
        "Time(s)": 108
    },
    {
        "Altitude(m)": 702816.494115362,
        "Argument of Periapsis(deg)": 0.0065343326807492125,
        "Eccentricity": 0.0,
        "Inclination(deg)": 45.0,
        "Latitude(deg)": 6.851124695056524,
        "Longitude(deg)": -27.29429287161637,
        "Mean Anomaly(deg)": -189.74717571276096,
        "RAAN(deg)": 259.9938317809529,
        "Satellite Name": "Constellation 1 1154",
        "Satellite Number": 1154,
        "Semi-Major Axis(m)": 7083131.272910544,
        "Time(s)": 109
    },
    {
        "Altitude(m)": 702818.8124662479,
        "Argument of Periapsis(deg)": 0.0065942806869946176,
        "Eccentricity": 0.0,
        "Inclination(deg)": 45.0,
        "Latitude(deg)": 6.808213638502345,
        "Longitude(deg)": -27.2549242729752,
        "Mean Anomaly(deg)": -189.6864745725111,
        "RAAN(deg)": 259.99377519178734,
        "Satellite Name": "Constellation 1 1154",
        "Satellite Number": 1154,
        "Semi-Major Axis(m)": 7083131.272910544,
        "Time(s)": 110
    },
    {
        "Altitude(m)": 702821.1513062016,
        "Argument of Periapsis(deg)": 0.006654228693240024,
        "Eccentricity": 0.0,
        "Inclination(deg)": 45.0,
        "Latitude(deg)": 6.765298649526738,
        "Longitude(deg)": -27.215563611928243,
        "Mean Anomaly(deg)": -189.6257734322612,
        "RAAN(deg)": 259.9937186026218,
        "Satellite Name": "Constellation 1 1154",
        "Satellite Number": 1154,
        "Semi-Major Axis(m)": 7083131.272910544,
        "Time(s)": 111
    },
    {
        "Altitude(m)": 702823.510643379,
        "Argument of Periapsis(deg)": 0.006714176699485429,
        "Eccentricity": 0.0,
        "Inclination(deg)": 45.0,
        "Latitude(deg)": 6.722379754250643,
        "Longitude(deg)": -27.17621050260329,
        "Mean Anomaly(deg)": -189.56507229201128,
        "RAAN(deg)": 259.99366201345623,
        "Satellite Name": "Constellation 1 1154",
        "Satellite Number": 1154,
        "Semi-Major Axis(m)": 7083131.272910544,
        "Time(s)": 112
    },
    {
        "Altitude(m)": 702825.8904858582,
        "Argument of Periapsis(deg)": 0.006774124705730835,
        "Eccentricity": 0.0,
        "Inclination(deg)": 45.0,
        "Latitude(deg)": 6.679456978779739,
        "Longitude(deg)": -27.13686506343627,
        "Mean Anomaly(deg)": -189.50437115176143,
        "RAAN(deg)": 259.99360542429065,
        "Satellite Name": "Constellation 1 1154",
        "Satellite Number": 1154,
        "Semi-Major Axis(m)": 7083131.272910544,
        "Time(s)": 113
    }
]